[{"OBJECT_NAME":"STARLINK-5921","OBJECT_ID":"2023-037N","EPOCH":"2026-03-09T22:23:24.352800","MEAN_MOTION":14.98319781,"ECCENTRICITY":0.0002778,"INCLINATION":69.9978,"RA_OF_ASC_NODE":283.9635,"ARG_OF_PERICENTER":268.4707,"MEAN_ANOMALY":91.6134,"EPHEMERIS_TYPE":0,"CLASSIFICATION_TYPE":"U","NORAD_CAT_ID":55926,"ELEMENT_SET_NO":999,"REV_AT_EPOCH":16401,"BSTAR":-0.00015944198,"MEAN_MOTION_DOT":-1.994e-5,"MEAN_MOTION_DDOT":0},{"OBJECT_NAME":"PEGASUS DEB","OBJECT_ID":"1994-029ABU","EPOCH":"2026-03-08T09:55:10.155936","MEAN_MOTION":14.19535939,"ECCENTRICITY":0.03610507,"INCLINATION":81.685,"RA_OF_ASC_NODE":93.5097,"ARG_OF_PERICENTER":18.2292,"MEAN_ANOMALY":45.8022,"EPHEMERIS_TYPE":0,"CLASSIFICATION_TYPE":"U","NORAD_CAT_ID":24817,"ELEMENT_SET_NO":999,"REV_AT_EPOCH":50638,"BSTAR":0.0011603059,"MEAN_MOTION_DOT":4.738e-5,"MEAN_MOTION_DDOT":0}]
